{
  "type": "FeatureCollection",
  "features": [
    {
      "type": "Feature",
      "properties": {
        "norad_id": 66716,
        "name": "FLOCK 4H-13",
        "group": "last-30-days",
        "lat": -7.383657853225201,
        "lon": -114.70422890021187,
        "alt_km": 514.598014024562,
        "timestamp": "2025-12-20T14:38:00.688689+00:00",
        "meta_object_name": "FLOCK 4H-13",
        "meta_object_id": "2025-276BC",
        "meta_epoch": "2025-12-20T04:19:11.288064",
        "meta_mean_motion": 15.18153955,
        "meta_eccentricity": 0.00015195,
        "meta_inclination": 97.4438,
        "meta_ra_of_asc_node": 65.8438,
        "meta_arg_of_pericenter": 149.0109,
        "meta_mean_anomaly": 211.1215,
        "meta_ephemeris_type": 0,
        "meta_classification_type": "U",
        "meta_norad_cat_id": 66716,
        "meta_element_set_no": 999,
        "meta_rev_at_epoch": 325,
        "meta_bstar": 0.00024134799,
        "meta_mean_motion_dot": 4.862e-05,
        "meta_mean_motion_ddot": 0,
        "tle_line1": "1 66716U 25276BC  25354.17999176  .00004862  00000+0  24135-3 0  9993",
        "tle_line2": "2 66716  97.4438  65.8438 0001519 149.0109 211.1215 15.18153955  3253"
      },
      "geometry": {
        "type": "Point",
        "coordinates": [
          -114.70422890021187,
          -7.383657853225201
        ]
      }
    },
    {
      "type": "Feature",
      "properties": {
        "norad_id": 66717,
        "name": "FLOCK 4H-14",
        "group": "last-30-days",
        "lat": -16.872608906437094,
        "lon": -116.00538988545341,
        "alt_km": 515.4484896178537,
        "timestamp": "2025-12-20T14:38:00.688701+00:00",
        "meta_object_name": "FLOCK 4H-14",
        "meta_object_id": "2025-276BD",
        "meta_epoch": "2025-12-20T04:16:43.719456",
        "meta_mean_motion": 15.18309696,
        "meta_eccentricity": 0.00014409,
        "meta_inclination": 97.4425,
        "meta_ra_of_asc_node": 65.8424,
        "meta_arg_of_pericenter": 137.0818,
        "meta_mean_anomaly": 223.0529,
        "meta_ephemeris_type": 0,
        "meta_classification_type": "U",
        "meta_norad_cat_id": 66717,
        "meta_element_set_no": 999,
        "meta_rev_at_epoch": 250,
        "meta_bstar": 0.00025180082,
        "meta_mean_motion_dot": 5.098e-05,
        "meta_mean_motion_ddot": 0,
        "tle_line1": "1 66717U 25276BD  25354.17828379  .00005098  00000+0  25180-3 0  9993",
        "tle_line2": "2 66717  97.4425  65.8424 0001440 137.0818 223.0529 15.18309696  2504"
      },
      "geometry": {
        "type": "Point",
        "coordinates": [
          -116.00538988545341,
          -16.872608906437094
        ]
      }
    },
    {
      "type": "Feature",
      "properties": {
        "norad_id": 66718,
        "name": "FLOCK 4H-15",
        "group": "last-30-days",
        "lat": 72.8277684723446,
        "lon": -88.73979981528096,
        "alt_km": 509.8016909171138,
        "timestamp": "2025-12-20T14:38:00.688711+00:00",
        "meta_object_name": "FLOCK 4H-15",
        "meta_object_id": "2025-276BE",
        "meta_epoch": "2025-12-20T01:30:21.849696",
        "meta_mean_motion": 15.17073597,
        "meta_eccentricity": 0.00030538,
        "meta_inclination": 97.4434,
        "meta_ra_of_asc_node": 65.6942,
        "meta_arg_of_pericenter": 283.5024,
        "meta_mean_anomaly": 76.5869,
        "meta_ephemeris_type": 0,
        "meta_classification_type": "U",
        "meta_norad_cat_id": 66718,
        "meta_element_set_no": 999,
        "meta_rev_at_epoch": 323,
        "meta_bstar": 0.00022690308,
        "meta_mean_motion_dot": 4.427e-05,
        "meta_mean_motion_ddot": 0,
        "tle_line1": "1 66718U 25276BE  25354.06275289  .00004427  00000+0  22690-3 0  9996",
        "tle_line2": "2 66718  97.4434  65.6942 0003053 283.5024  76.5869 15.17073597  3232"
      },
      "geometry": {
        "type": "Point",
        "coordinates": [
          -88.73979981528096,
          72.8277684723446
        ]
      }
    },
    {
      "type": "Feature",
      "properties": {
        "norad_id": 66719,
        "name": "FLOCK 4H-16",
        "group": "last-30-days",
        "lat": 65.08559529180785,
        "lon": -97.40806407335205,
        "alt_km": 509.6722748182974,
        "timestamp": "2025-12-20T14:38:00.688721+00:00",
        "meta_object_name": "FLOCK 4H-16",
        "meta_object_id": "2025-276BF",
        "meta_epoch": "2025-12-20T00:00:02.000160",
        "meta_mean_motion": 15.17176766,
        "meta_eccentricity": 0.00028776,
        "meta_inclination": 97.4452,
        "meta_ra_of_asc_node": 65.641,
        "meta_arg_of_pericenter": 265.1446,
        "meta_mean_anomaly": 120.6373,
        "meta_ephemeris_type": 0,
        "meta_classification_type": "U",
        "meta_norad_cat_id": 66719,
        "meta_element_set_no": 999,
        "meta_rev_at_epoch": 265,
        "meta_bstar": 0.0012346444,
        "meta_mean_motion_dot": 0.00024517,
        "meta_mean_motion_ddot": 0,
        "tle_line1": "1 66719U 25276BF  25354.00002315  .00024517  00000+0  12346-2 0  9997",
        "tle_line2": "2 66719  97.4452  65.6410 0002877 265.1446 120.6373 15.17176766  2658"
      },
      "geometry": {
        "type": "Point",
        "coordinates": [
          -97.40806407335205,
          65.08559529180785
        ]
      }
    },
    {
      "type": "Feature",
      "properties": {
        "norad_id": 66720,
        "name": "FLOCK 4H-17",
        "group": "last-30-days",
        "lat": 2.5840831258240557,
        "lon": -113.39272786243914,
        "alt_km": 512.9459973930352,
        "timestamp": "2025-12-20T14:38:00.688731+00:00",
        "meta_object_name": "FLOCK 4H-17",
        "meta_object_id": "2025-276BG",
        "meta_epoch": "2025-12-20T04:21:46.615392",
        "meta_mean_motion": 15.18028916,
        "meta_eccentricity": 0.00024739,
        "meta_inclination": 97.4453,
        "meta_ra_of_asc_node": 65.8481,
        "meta_arg_of_pericenter": 200.8658,
        "meta_mean_anomaly": 159.2476,
        "meta_ephemeris_type": 0,
        "meta_classification_type": "U",
        "meta_norad_cat_id": 66720,
        "meta_element_set_no": 999,
        "meta_rev_at_epoch": 325,
        "meta_bstar": 0.00029797788,
        "meta_mean_motion_dot": 5.998e-05,
        "meta_mean_motion_ddot": 0,
        "tle_line1": "1 66720U 25276BG  25354.18178953  .00005998  00000+0  29798-3 0  9992",
        "tle_line2": "2 66720  97.4453  65.8481 0002473 200.8658 159.2476 15.18028916  3257"
      },
      "geometry": {
        "type": "Point",
        "coordinates": [
          -113.39272786243914,
          2.5840831258240557
        ]
      }
    },
    {
      "type": "Feature",
      "properties": {
        "norad_id": 66721,
        "name": "FLOCK 4H-18",
        "group": "last-30-days",
        "lat": 70.36160222423206,
        "lon": -92.29928187102593,
        "alt_km": 509.32188231689906,
        "timestamp": "2025-12-20T14:38:00.688750+00:00",
        "meta_object_name": "FLOCK 4H-18",
        "meta_object_id": "2025-276BH",
        "meta_epoch": "2025-12-20T03:04:39.467712",
        "meta_mean_motion": 15.17116605,
        "meta_eccentricity": 0.00024288,
        "meta_inclination": 97.4403,
        "meta_ra_of_asc_node": 65.745,
        "meta_arg_of_pericenter": 309.7615,
        "meta_mean_anomaly": 50.3404,
        "meta_ephemeris_type": 0,
        "meta_classification_type": "U",
        "meta_norad_cat_id": 66721,
        "meta_element_set_no": 999,
        "meta_rev_at_epoch": 324,
        "meta_bstar": 0.00039893495,
        "meta_mean_motion_dot": 7.846e-05,
        "meta_mean_motion_ddot": 0,
        "tle_line1": "1 66721U 25276BH  25354.12823458  .00007846  00000+0  39893-3 0  9995",
        "tle_line2": "2 66721  97.4403  65.7450 0002428 309.7615  50.3404 15.17116605  3243"
      },
      "geometry": {
        "type": "Point",
        "coordinates": [
          -92.29928187102593,
          70.36160222423206
        ]
      }
    },
    {
      "type": "Feature",
      "properties": {
        "norad_id": 66722,
        "name": "FLOCK 4H-19",
        "group": "last-30-days",
        "lat": -11.413797225666034,
        "lon": -115.25580012621514,
        "alt_km": 514.4743093698717,
        "timestamp": "2025-12-20T14:38:00.688761+00:00",
        "meta_object_name": "FLOCK 4H-19",
        "meta_object_id": "2025-276BJ",
        "meta_epoch": "2025-12-20T04:18:08.159040",
        "meta_mean_motion": 15.18200139,
        "meta_eccentricity": 0.00021396,
        "meta_inclination": 97.4397,
        "meta_ra_of_asc_node": 65.8326,
        "meta_arg_of_pericenter": 159.3322,
        "meta_mean_anomaly": 200.7999,
        "meta_ephemeris_type": 0,
        "meta_classification_type": "U",
        "meta_norad_cat_id": 66722,
        "meta_element_set_no": 999,
        "meta_rev_at_epoch": 254,
        "meta_bstar": 0.00036219186,
        "meta_mean_motion_dot": 7.342e-05,
        "meta_mean_motion_ddot": 0,
        "tle_line1": "1 66722U 25276BJ  25354.17926110  .00007342  00000+0  36219-3 0  9990",
        "tle_line2": "2 66722  97.4397  65.8326 0002139 159.3322 200.7999 15.18200139  2541"
      },
      "geometry": {
        "type": "Point",
        "coordinates": [
          -115.25580012621514,
          -11.413797225666034
        ]
      }
    }
  ]
}